TEIKYOSAT-4 (OORURI)    
1 49396U 21102B   26068.67534185  .00002438  00000+0  15740-3 0  9994
2 49396  97.3797 101.9931 0010345 276.5421  83.4630 15.09119208237719
STARLINK-3344           
1 51110U 22005G   26068.83152539 -.00000536  00000+0 -15578-4 0  9990
2 51110  53.2182 288.4637 0001436  91.5574 268.5583 15.08837664228900
